$$SOE
2461302.500000000, A.D. 2026-Sep-19 00:00:00.0000, -1.802890388098303E+08, 4.042968208950027E+08, -4.126870316680272E+07,
2461309.500000000, A.D. 2026-Sep-26 00:00:00.0000, -1.902394323533621E+08, 4.015920453621694E+08, -4.011387460433504E+07,
2461316.500000000, A.D. 2026-Oct-03 00:00:00.0000, -2.000860993604570E+08, 3.986679003375317E+08, -3.893708295927046E+07,
2461323.500000000, A.D. 2026-Oct-10 00:00:00.0000, -2.098248161099449E+08, 3.955282802707688E+08, -3.773919493679419E+07,
2461330.500000000, A.D. 2026-Oct-17 00:00:00.0000, -2.194515054980212E+08, 3.921771158316089E+08, -3.652107073250750E+07,
2461337.500000000, A.D. 2026-Oct-24 00:00:00.0000, -2.289622341270026E+08, 3.886183693403997E+08, -3.528356364939323E+07,
2461344.500000000, A.D. 2026-Oct-31 00:00:00.0000, -2.383532092546118E+08, 3.848560302951723E+08, -3.402751977647762E+07,
2461351.500000000, A.D. 2026-Nov-07 00:00:00.0000, -2.476207752777951E+08, 3.808941110604362E+08, -3.275377775181036E+07,
2461358.500000000, A.D. 2026-Nov-14 00:00:00.0000, -2.567614095627062E+08, 3.767366435962221E+08, -3.146316855332285E+07,
2461365.500000000, A.D. 2026-Nov-21 00:00:00.0000, -2.657717194447424E+08, 3.723876779014699E+08, -3.015651509364419E+07,
2461372.500000000, A.D. 2026-Nov-28 00:00:00.0000, -2.746484414062226E+08, 3.678512791564264E+08, -2.883463177109893E+07,
2461379.500000000, A.D. 2026-Dec-05 00:00:00.0000, -2.833884388193642E+08, 3.631315228972624E+08, -2.749832435969728E+07,
2461386.500000000, A.D. 2026-Dec-12 00:00:00.0000, -2.919886980990668E+08, 3.582324913239352E+08, -2.614838999665336E+07,
2461393.500000000, A.D. 2026-Dec-19 00:00:00.0000, -3.004463251610667E+08, 3.531582707409490E+08, -2.478561709212363E+07,
2461400.500000000, A.D. 2026-Dec-26 00:00:00.0000, -3.087585423329298E+08, 3.479129492549508E+08, -2.341078521695948E+07,
2461407.500000000, A.D. 2027-Jan-02 00:00:00.0000, -3.169226854465523E+08, 3.425006145282454E+08, -2.202466500707297E+07,
2461414.500000000, A.D. 2027-Jan-09 00:00:00.0000, -3.249362010006498E+08, 3.369253515979580E+08, -2.062801809139355E+07,
2461421.500000000, A.D. 2027-Jan-16 00:00:00.0000, -3.327966433645228E+08, 3.311912407600051E+08, -1.922159704421778E+07,
2461428.500000000, A.D. 2027-Jan-23 00:00:00.0000, -3.405016719842612E+08, 3.253023554701219E+08, -1.780614536807874E+07,
2461435.500000000, A.D. 2027-Jan-30 00:00:00.0000, -3.480490484101157E+08, 3.192627602073863E+08, -1.638239752716114E+07,
2461442.500000000, A.D. 2027-Feb-06 00:00:00.0000, -3.554366327253571E+08, 3.130765086338183E+08, -1.495107904138508E+07,
2461449.500000000, A.D. 2027-Feb-13 00:00:00.0000, -3.626623798411468E+08, 3.067476432629215E+08, -1.351290649825534E+07,
2461456.500000000, A.D. 2027-Feb-20 00:00:00.0000, -3.697243380254587E+08, 3.002801958398966E+08, -1.206858732950942E+07,
2461463.500000000, A.D. 2027-Feb-27 00:00:00.0000, -3.766206482722121E+08, 2.936781852139137E+08, -1.061881974235958E+07,
2461470.500000000, A.D. 2027-Mar-06 00:00:00.0000, -3.833495414928602E+08, 2.869456146168209E+08, -9.164292923852488E+06,
2461477.500000000, A.D. 2027-Mar-13 00:00:00.0000, -3.899093351335419E+08, 2.800864703900227E+08, -7.705687203348428E+06,
2461484.500000000, A.D. 2027-Mar-20 00:00:00.0000, -3.962984303504044E+08, 2.731047213201107E+08, -6.243674137341380E+06,
2461491.500000000, A.D. 2027-Mar-27 00:00:00.0000, -4.025153095422493E+08, 2.660043180299503E+08, -4.778916579421461E+06,
2461498.500000000, A.D. 2027-Apr-03 00:00:00.0000, -4.085585340378668E+08, 2.587891923726184E+08, -3.312068757204175E+06,
2461505.500000000, A.D. 2027-Apr-10 00:00:00.0000, -4.144267418768889E+08, 2.514632568463439E+08, -1.843776359299660E+06,
2461512.500000000, A.D. 2027-Apr-17 00:00:00.0000, -4.201186456619837E+08, 2.440304040113817E+08, -3.746766349081993E+05,
2461519.500000000, A.D. 2027-Apr-24 00:00:00.0000, -4.256330304028682E+08, 2.364945058420469E+08, 1.094601482183382E+06,
2461526.500000000, A.D. 2027-May-01 00:00:00.0000, -4.309687510519604E+08, 2.288594130372005E+08, 2.563437200535744E+06,
2461533.500000000, A.D. 2027-May-08 00:00:00.0000, -4.361247294235848E+08, 2.211289550330235E+08, 4.031217682394221E+06,
2461540.500000000, A.D. 2027-May-15 00:00:00.0000, -4.410999519934328E+08, 2.133069416670634E+08, 5.497338055056214E+06,
2461547.500000000, A.D. 2027-May-22 00:00:00.0000, -4.458934701427233E+08, 2.053971638986219E+08, 6.961201554235205E+06,
2461554.500000000, A.D. 2027-May-29 00:00:00.0000, -4.505043994899467E+08, 1.974033921146179E+08, 8.422219372125819E+06,
2461561.500000000, A.D. 2027-Jun-05 00:00:00.0000, -4.549319174226341E+08, 1.893293751482829E+08, 9.879810385552168E+06,
2461568.500000000, A.D. 2027-Jun-12 00:00:00.0000, -4.591752608361862E+08, 1.811788404378490E+08, 1.133340098399200E+07,
2461575.500000000, A.D. 2027-Jun-19 00:00:00.0000, -4.632337244111434E+08, 1.729554943872766E+08, 1.278242495176778E+07,
2461582.500000000, A.D. 2027-Jun-26 00:00:00.0000, -4.671066591488012E+08, 1.646630226651649E+08, 1.422632335788677E+07,
2461589.500000000, A.D. 2027-Jul-03 00:00:00.0000, -4.707934710318946E+08, 1.563050904472830E+08, 1.566454444260976E+07,
2461596.500000000, A.D. 2027-Jul-10 00:00:00.0000, -4.742936197724542E+08, 1.478853426085001E+08, 1.709654349860103E+07,
2461603.500000000, A.D. 2027-Jul-17 00:00:00.0000, -4.776066176095887E+08, 1.394074038224395E+08, 1.852178274066541E+07,
2461610.500000000, A.D. 2027-Jul-24 00:00:00.0000, -4.807320279999414E+08, 1.308748785034149E+08, 1.993973114509575E+07,
2461617.500000000, A.D. 2027-Jul-31 00:00:00.0000, -4.836694637885243E+08, 1.222913508236770E+08, 2.134986424062520E+07,
2461624.500000000, A.D. 2027-Aug-07 00:00:00.0000, -4.864185850597699E+08, 1.136603859552236E+08, 2.275166396393809E+07,
2461631.500000000, A.D. 2027-Aug-14 00:00:00.0000, -4.889790989697102E+08, 1.049855322805285E+08, 2.414461877041867E+07,
2461638.500000000, A.D. 2027-Aug-21 00:00:00.0000, -4.913507609413963E+08, 9.627032120682019E+07, 2.552822366880550E+07,
2461645.500000000, A.D. 2027-Aug-28 00:00:00.0000, -4.935333737905511E+08, 8.751826578664947E+07, 2.690197996369505E+07,
2461652.500000000, A.D. 2027-Sep-04 00:00:00.0000, -4.955267859588984E+08, 7.873286064492184E+07, 2.826539501878005E+07,
2461659.500000000, A.D. 2027-Sep-11 00:00:00.0000, -4.973308902484050E+08, 6.991758254788087E+07, 2.961798211459085E+07,
2461666.500000000, A.D. 2027-Sep-18 00:00:00.0000, -4.989456229226262E+08, 6.107589096119187E+07, 3.095926033522051E+07,
2461673.500000000, A.D. 2027-Sep-25 00:00:00.0000, -5.003709629461228E+08, 5.221122851733738E+07, 3.228875445658607E+07,
2461680.500000000, A.D. 2027-Oct-02 00:00:00.0000, -5.016069312871987E+08, 4.332702141822675E+07, 3.360599483153789E+07,
2461687.500000000, A.D. 2027-Oct-09 00:00:00.0000, -5.026535902619596E+08, 3.442667976756735E+07, 3.491051726938432E+07,
2461694.500000000, A.D. 2027-Oct-16 00:00:00.0000, -5.035110428565975E+08, 2.551359777771381E+07, 3.620186289958274E+07,
2461701.500000000, A.D. 2027-Oct-23 00:00:00.0000, -5.041794317674444E+08, 1.659115384503035E+07, 3.747957799533382E+07,
2461708.500000000, A.D. 2027-Oct-30 00:00:00.0000, -5.046589377829031E+08, 7.662711103605487E+06, 3.874321377261729E+07,
2461715.500000000, A.D. 2027-Nov-06 00:00:00.0000, -5.049497786693155E+08, -1.268380415555352E+06, 3.999232636357124E+07,
2461722.500000000, A.D. 2027-Nov-13 00:00:00.0000, -5.050522105457824E+08, -1.019878209751052E+07, 4.122647697668108E+07,
2461729.500000000, A.D. 2027-Nov-20 00:00:00.0000, -5.049665288464891E+08, -1.912516771513174E+07, 4.244523179921925E+07,
2461736.500000000, A.D. 2027-Nov-27 00:00:00.0000, -5.046930672517816E+08, -2.804422409525121E+07, 4.364816173606360E+07,
2461743.500000000, A.D. 2027-Dec-04 00:00:00.0000, -5.042321966095551E+08, -3.695265056643677E+07, 4.483484224521516E+07,
2461750.500000000, A.D. 2027-Dec-11 00:00:00.0000, -5.035843243969555E+08, -4.584715815412603E+07, 4.600485324180684E+07,
2461757.500000000, A.D. 2027-Dec-18 00:00:00.0000, -5.027498944477312E+08, -5.472446886337179E+07, 4.715777901789244E+07,
2461764.500000000, A.D. 2027-Dec-25 00:00:00.0000, -5.017293867932729E+08, -6.358131505201974E+07, 4.829320816416007E+07,
2461771.500000000, A.D. 2028-Jan-01 00:00:00.0000, -5.005233175755936E+08, -7.241443888037685E+07, 4.941073349120946E+07,
$$EOE